IRIDIUM 7               
1 24793U 97020B   24327.75046256  .00000957  00000+0  32526-3 0  9997
2 24793  86.3949 263.3719 0002608  83.6264 276.5229 14.35612572442270
IRIDIUM 5               
1 24795U 97020D   24327.58862475  .00008825  00000+0  78005-3 0  9993
2 24795  86.3937 178.7104 0115912 157.2642 203.3780 14.91087845454642
IRIDIUM 4               
1 24796U 97020E   24327.86435973  .00000872  00000+0  29047-3 0  9990
2 24796  86.3948 260.3345 0002395  87.0895 273.0576 14.36526343442846
IRIDIUM 914             
1 24836U 97030A   24327.39698039  .00001215  00000+0  37624-3 0  9990
2 24836  86.3917 269.7598 0002742 123.0675 237.0787 14.40469928577352
IRIDIUM 16              
1 24841U 97030F   24327.74414724  .00001115  00000+0  35988-3 0  9992
2 24841  86.3998 292.0194 0003876  56.5033 303.6535 14.38336926437326
IRIDIUM 911             
1 24842U 97030G   24327.40959381  .00001494  00000+0  40395-3 0  9997
2 24842  86.4422 291.1402 0016584  70.1945 290.1045 14.47116779445176
IRIDIUM 17              
1 24870U 97034B   24327.53404290  .00001157  00000+0  38047-3 0  9997
2 24870  86.3932 321.6844 0002106  46.1592 313.9780 14.37439464433891
IRIDIUM 920             
1 24871U 97034C   24327.69118352  .00001167  00000+0  35589-3 0  9995
2 24871  86.3938 301.3113 0013333  50.5841 309.6537 14.41141039436834
